{"type": "FeatureCollection", "features": [{"type": "Feature", "properties": {"norad_id": 2807, "name": "OPS 7218 (TRANSIT 16)", "group": "nnss", "lat": -33.21512824714205, "lon": 173.9096020246404, "alt_km": 1085.2003555598267, "timestamp": "2025-12-22T09:53:37.670143+00:00", "meta": {"OBJECT_NAME": "OPS 7218 (TRANSIT 16)", "OBJECT_ID": "1967-048A", "EPOCH": "2025-12-21T17:41:39.509376", "MEAN_MOTION": 13.50724099, "ECCENTRICITY": 0.0022162, "INCLINATION": 89.6731, "RA_OF_ASC_NODE": 353.7177, "ARG_OF_PERICENTER": 90.0973, "MEAN_ANOMALY": 82.6056, "EPHEMERIS_TYPE": 0, "CLASSIFICATION_TYPE": "U", "NORAD_CAT_ID": 2807, "ELEMENT_SET_NO": 999, "REV_AT_EPOCH": 88397, "BSTAR": 0.0001479, "MEAN_MOTION_DOT": 1.06e-06, "MEAN_MOTION_DDOT": 0}, "tle": {"line1": "1 02807U 67048A   25355.73726284  .00000106  00000+0  14790-3 0  9991", "line2": "2 02807  89.6731 353.7177 0022162  90.0973  82.6056 13.50724099883979"}}, "geometry": {"type": "Point", "coordinates": [173.9096020246404, -33.21512824714205]}}, {"type": "Feature", "properties": {"norad_id": 2965, "name": "OPS 4947 (TRANSIT 17)", "group": "nnss", "lat": 12.406780593291467, "lon": 23.863117470717466, "alt_km": 1094.7096456763866, "timestamp": "2025-12-22T09:53:37.670165+00:00", "meta": {"OBJECT_NAME": "OPS 4947 (TRANSIT 17)", "OBJECT_ID": "1967-092A", "EPOCH": "2025-12-22T03:02:10.192704", "MEAN_MOTION": 13.53456022, "ECCENTRICITY": 0.0046861, "INCLINATION": 89.2487, "RA_OF_ASC_NODE": 23.7195, "ARG_OF_PERICENTER": 206.5849, "MEAN_ANOMALY": 214.414, "EPHEMERIS_TYPE": 0, "CLASSIFICATION_TYPE": "U", "NORAD_CAT_ID": 2965, "ELEMENT_SET_NO": 999, "REV_AT_EPOCH": 87224, "BSTAR": 0.00020254, "MEAN_MOTION_DOT": 1.48e-06, "MEAN_MOTION_DDOT": 0}, "tle": {"line1": "1 02965U 67092A   25356.12650686  .00000148  00000+0  20254-3 0  9999", "line2": "2 02965  89.2487  23.7195 0046861 206.5849 214.4140 13.53456022872248"}}, "geometry": {"type": "Point", "coordinates": [23.863117470717466, 12.406780593291467]}}, {"type": "Feature", "properties": {"norad_id": 3133, "name": "OPS 7034 (TRANSIT 18)", "group": "nnss", "lat": 84.69743644407528, "lon": 93.97367983359378, "alt_km": 1020.1977876021674, "timestamp": "2025-12-22T09:53:37.670179+00:00", "meta": {"OBJECT_NAME": "OPS 7034 (TRANSIT 18)", "OBJECT_ID": "1968-012A", "EPOCH": "2025-12-22T04:41:47.227200", "MEAN_MOTION": 13.51567879, "ECCENTRICITY": 0.0074747, "INCLINATION": 90.0285, "RA_OF_ASC_NODE": 273.6658, "ARG_OF_PERICENTER": 141.9219, "MEAN_ANOMALY": 340.9277, "EPHEMERIS_TYPE": 0, "CLASSIFICATION_TYPE": "U", "NORAD_CAT_ID": 3133, "ELEMENT_SET_NO": 999, "REV_AT_EPOCH": 57046, "BSTAR": 0.00020491, "MEAN_MOTION_DOT": 1.46e-06, "MEAN_MOTION_DDOT": 0}, "tle": {"line1": "1 03133U 68012A   25356.19568550  .00000146  00000+0  20491-3 0  9996", "line2": "2 03133  90.0285 273.6658 0074747 141.9219 340.9277 13.51567879570465"}}, "geometry": {"type": "Point", "coordinates": [93.97367983359378, 84.69743644407528]}}, {"type": "Feature", "properties": {"norad_id": 4507, "name": "NNSS 19 (TRANSIT 19)", "group": "nnss", "lat": 59.43902446083506, "lon": -125.46801676130217, "alt_km": 1175.6641831051047, "timestamp": "2025-12-22T09:53:37.670190+00:00", "meta": {"OBJECT_NAME": "NNSS 19 (TRANSIT 19)", "OBJECT_ID": "1970-067A", "EPOCH": "2025-12-22T02:29:12.723072", "MEAN_MOTION": 13.51317001, "ECCENTRICITY": 0.0170222, "INCLINATION": 90.005, "RA_OF_ASC_NODE": 234.5403, "ARG_OF_PERICENTER": 265.9727, "MEAN_ANOMALY": 92.1953, "EPHEMERIS_TYPE": 0, "CLASSIFICATION_TYPE": "U", "NORAD_CAT_ID": 4507, "ELEMENT_SET_NO": 999, "REV_AT_EPOCH": 72348, "BSTAR": 0.00016324, "MEAN_MOTION_DOT": 1.24e-06, "MEAN_MOTION_DDOT": 0}, "tle": {"line1": "1 04507U 70067A   25356.10361948  .00000124  00000+0  16324-3 0  9994", "line2": "2 04507  90.0050 234.5403 0170222 265.9727  92.1953 13.51317001723480"}}, "geometry": {"type": "Point", "coordinates": [-125.46801676130217, 59.43902446083506]}}, {"type": "Feature", "properties": {"norad_id": 6909, "name": "NNSS 20 (TRANSIT 20)", "group": "nnss", "lat": 67.43428242979923, "lon": 74.56302156173561, "alt_km": 933.9629472646966, "timestamp": "2025-12-22T09:53:37.670201+00:00", "meta": {"OBJECT_NAME": "NNSS 20 (TRANSIT 20)", "OBJECT_ID": "1973-081A", "EPOCH": "2025-12-22T02:21:26.012736", "MEAN_MOTION": 13.71439096, "ECCENTRICITY": 0.0156327, "INCLINATION": 89.8562, "RA_OF_ASC_NODE": 254.914, "ARG_OF_PERICENTER": 50.5929, "MEAN_ANOMALY": 310.8956, "EPHEMERIS_TYPE": 0, "CLASSIFICATION_TYPE": "U", "NORAD_CAT_ID": 6909, "ELEMENT_SET_NO": 999, "REV_AT_EPOCH": 80489, "BSTAR": 0.00027895, "MEAN_MOTION_DOT": 2.85e-06, "MEAN_MOTION_DDOT": 0}, "tle": {"line1": "1 06909U 73081A   25356.09821774  .00000285  00000+0  27895-3 0  9990", "line2": "2 06909  89.8562 254.9140 0156327  50.5929 310.8956 13.71439096804897"}}, "geometry": {"type": "Point", "coordinates": [74.56302156173561, 67.43428242979923]}}, {"type": "Feature", "properties": {"norad_id": 10457, "name": "TRANSAT", "group": "nnss", "lat": -18.93156842983905, "lon": 78.1338415951988, "alt_km": 1100.7636335015195, "timestamp": "2025-12-22T09:53:37.670212+00:00", "meta": {"OBJECT_NAME": "TRANSAT", "OBJECT_ID": "1977-106A", "EPOCH": "2025-12-22T04:43:59.923776", "MEAN_MOTION": 13.48945163, "ECCENTRICITY": 0.0026228, "INCLINATION": 89.6479, "RA_OF_ASC_NODE": 78.2623, "ARG_OF_PERICENTER": 162.6687, "MEAN_ANOMALY": 214.9455, "EPHEMERIS_TYPE": 0, "CLASSIFICATION_TYPE": "U", "NORAD_CAT_ID": 10457, "ELEMENT_SET_NO": 999, "REV_AT_EPOCH": 36871, "BSTAR": 0.00016513, "MEAN_MOTION_DOT": 1.14e-06, "MEAN_MOTION_DDOT": 0}, "tle": {"line1": "1 10457U 77106A   25356.19722134  .00000114  00000+0  16513-3 0  9992", "line2": "2 10457  89.6479  78.2623 0026228 162.6687 214.9455 13.48945163368715"}}, "geometry": {"type": "Point", "coordinates": [78.1338415951988, -18.93156842983905]}}, {"type": "Feature", "properties": {"norad_id": 12458, "name": "NOVA 1", "group": "nnss", "lat": 70.1651048253167, "lon": 91.65708987776654, "alt_km": 1153.741108359627, "timestamp": "2025-12-22T09:53:37.670222+00:00", "meta": {"OBJECT_NAME": "NOVA 1", "OBJECT_ID": "1981-044A", "EPOCH": "2025-12-21T17:47:03.721056", "MEAN_MOTION": 13.23279405, "ECCENTRICITY": 0.0015829, "INCLINATION": 89.8527, "RA_OF_ASC_NODE": 91.258, "ARG_OF_PERICENTER": 81.8787, "MEAN_ANOMALY": 32.6129, "EPHEMERIS_TYPE": 0, "CLASSIFICATION_TYPE": "U", "NORAD_CAT_ID": 12458, "ELEMENT_SET_NO": 999, "REV_AT_EPOCH": 15305, "BSTAR": 0.00011924, "MEAN_MOTION_DOT": 6e-07, "MEAN_MOTION_DDOT": 0}, "tle": {"line1": "1 12458U 81044A   25355.74101529  .00000060  00000+0  11924-3 0  9991", "line2": "2 12458  89.8527  91.2580 0015829  81.8787  32.6129 13.23279405153053"}}, "geometry": {"type": "Point", "coordinates": [91.65708987776654, 70.1651048253167]}}, {"type": "Feature", "properties": {"norad_id": 15362, "name": "NOVA 3", "group": "nnss", "lat": -65.32648872373017, "lon": 80.9142529764325, "alt_km": 1158.0871929788646, "timestamp": "2025-12-22T09:53:37.670233+00:00", "meta": {"OBJECT_NAME": "NOVA 3", "OBJECT_ID": "1984-110A", "EPOCH": "2025-12-21T18:29:46.288032", "MEAN_MOTION": 13.23045627, "ECCENTRICITY": 0.0029975, "INCLINATION": 90.122, "RA_OF_ASC_NODE": 80.641, "ARG_OF_PERICENTER": 305.9628, "MEAN_ANOMALY": 174.8273, "EPHEMERIS_TYPE": 0, "CLASSIFICATION_TYPE": "U", "NORAD_CAT_ID": 15362, "ELEMENT_SET_NO": 999, "REV_AT_EPOCH": 98818, "BSTAR": 0.00018712, "MEAN_MOTION_DOT": 8.7e-07, "MEAN_MOTION_DDOT": 0}, "tle": {"line1": "1 15362U 84110A   25355.77067463  .00000087  00000+0  18712-3 0  9997", "line2": "2 15362  90.1220  80.6410 0029975 305.9628 174.8273 13.23045627988186"}}, "geometry": {"type": "Point", "coordinates": [80.9142529764325, -65.32648872373017]}}, {"type": "Feature", "properties": {"norad_id": 15935, "name": "OSCAR 30", "group": "nnss", "lat": 69.63945229918536, "lon": -79.54851964011003, "alt_km": 1040.3215335210089, "timestamp": "2025-12-22T09:53:37.670244+00:00", "meta": {"OBJECT_NAME": "OSCAR 30", "OBJECT_ID": "1985-066A", "EPOCH": "2025-12-21T17:45:15.162048", "MEAN_MOTION": 13.36079647, "ECCENTRICITY": 0.0169107, "INCLINATION": 90.1655, "RA_OF_ASC_NODE": 99.9943, "ARG_OF_PERICENTER": 58.7725, "MEAN_ANOMALY": 57.3386, "EPHEMERIS_TYPE": 0, "CLASSIFICATION_TYPE": "U", "NORAD_CAT_ID": 15935, "ELEMENT_SET_NO": 999, "REV_AT_EPOCH": 96573, "BSTAR": 0.00015426, "MEAN_MOTION_DOT": 9.6e-07, "MEAN_MOTION_DDOT": 0}, "tle": {"line1": "1 15935U 85066A   25355.73975882  .00000096  00000+0  15426-3 0  9992", "line2": "2 15935  90.1655  99.9943 0169107  58.7725  57.3386 13.36079647965730"}}, "geometry": {"type": "Point", "coordinates": [-79.54851964011003, 69.63945229918536]}}, {"type": "Feature", "properties": {"norad_id": 15936, "name": "OSCAR 24", "group": "nnss", "lat": -1.0140462106633494, "lon": -87.52671949168058, "alt_km": 1184.9463245008528, "timestamp": "2025-12-22T09:53:37.670254+00:00", "meta": {"OBJECT_NAME": "OSCAR 24", "OBJECT_ID": "1985-066B", "EPOCH": "2025-12-21T21:01:44.436864", "MEAN_MOTION": 13.35937028, "ECCENTRICITY": 0.0170233, "INCLINATION": 90.1792, "RA_OF_ASC_NODE": 92.467, "ARG_OF_PERICENTER": 64.8291, "MEAN_ANOMALY": 57.8626, "EPHEMERIS_TYPE": 0, "CLASSIFICATION_TYPE": "U", "NORAD_CAT_ID": 15936, "ELEMENT_SET_NO": 999, "REV_AT_EPOCH": 96765, "BSTAR": 0.00015082, "MEAN_MOTION_DOT": 9.4e-07, "MEAN_MOTION_DDOT": 0}, "tle": {"line1": "1 15936U 85066B   25355.87620876  .00000094  00000+0  15082-3 0  9994", "line2": "2 15936  90.1792  92.4670 0170233  64.8291  57.8626 13.35937028967656"}}, "geometry": {"type": "Point", "coordinates": [-87.52671949168058, -1.0140462106633494]}}]}